video.addEventListener('click', function() {
    alert('OTW GEDUNG');
});

audio.addEventListener('click', function() {
    alert('CARAMELLDANSEN');
});

gambar.addEventListener('click', function() {
    alert('LOWI 280120Z AUTO VRB01KT 9999 NCD 09/07 Q1024');
});